ONEWEB-0534             
1 55797U 23029B   26197.62327516 -.00000144  00000+0 -38586-3 0  9999
2 55797  87.9174 268.6019 0002049 101.1828 258.9536 13.20771172165033
ONEWEB-0556             
1 55798U 23029C   26197.47850088 -.00008175  00000+0 -20145-1 0  9990
2 55798  87.9178 268.6304 0000999 118.1501 241.9733 13.20809891165012
ONEWEB-0562             
1 55799U 23029D   26197.61655466  .00000058  00000+0  11067-3 0  9995
2 55799  87.9172 268.5831 0001319  85.3671 274.7613 13.20771957165035
ONEWEB-0563             
1 55800U 23029E   26197.23271669  .00000076  00000+0  15521-3 0  9994
2 55800  87.9174 268.6898 0002137 104.6251 255.5119 13.20769753164973
ONEWEB-0564             
1 55801U 23029F   26197.60477581  .00000074  00000+0  14924-3 0  9991
2 55801  87.9175 268.5895 0001748  91.2069 268.9264 13.20772411165038
ONEWEB-0638             
1 55802U 23029G   26197.47006460  .00000196  00000+0  49388-3 0  9998
2 55802  87.8959 283.9149 0001464 104.1668 255.9625 13.14503967163244
ONEWEB-0639             
1 55803U 23029H   26197.52463241  .00000138  00000+0  31310-3 0  9991
2 55803  87.9187 299.1339 0002689 118.8202 241.3201 13.19726904162774
ONEWEB-0640             
1 55804U 23029J   26197.47958120  .00000062  00000+0  13350-3 0  9991
2 55804  87.8962 283.9041 0001615 117.7835 242.3458 13.14502679163260
ONEWEB-0641             
1 55805U 23029K   26197.29246125 -.00000748  00000+0 -19010-2 0  9998
2 55805  87.9194 299.1714 0002067 104.0666 256.0697 13.19717686162759
ONEWEB-0642             
1 55806U 23029L   26197.28772270  .00000051  00000+0  95744-4 0  9998
2 55806  87.9188 299.1822 0002701 112.9207 247.2211 13.19726758162740
ONEWEB-0643             
1 55807U 23029M   26197.52557478  .00000145  00000+0  35666-3 0  9997
2 55807  87.8955 283.8820 0002690 106.0521 254.0905 13.14502818163246
ONEWEB-0644             
1 55808U 23029N   26197.51043668  .00000028  00000+0  37861-4 0  9998
2 55808  87.9185 299.1389 0002305 105.7467 254.3920 13.19726005162779
ONEWEB-0645             
1 55809U 23029P   26197.53254783  .00000191  00000+0  44387-3 0  9994
2 55809  87.9184 299.1309 0002087 114.1640 245.9712 13.19726453162777
ONEWEB-0646             
1 55810U 23029Q   26197.32246223  .00000074  00000+0  15140-3 0  9998
2 55810  87.9186 299.1736 0002289 104.9453 255.1933 13.19727215162739
ONEWEB-0648             
1 55811U 23029R   26197.26549610 -.00000097  00000+0 -29747-3 0  9993
2 55811  87.8969 283.9103 0002425 121.5859 238.5507 13.14503534163211
ONEWEB-0649             
1 55812U 23029S   26197.57517821  .00000112  00000+0  24851-3 0  9994
2 55812  87.9185 299.1213 0002088 108.2496 251.8864 13.19727179162804
ONEWEB-0650             
1 55813U 23029T   26197.26717866 -.00000021  00000+0 -85898-4 0  9992
2 55813  87.9183 299.1849 0002516 110.9683 249.1719 13.19726257162739
ONEWEB-0652             
1 55814U 23029U   26197.47482465  .00000150  00000+0  36974-3 0  9991
2 55814  87.8969 283.8752 0001995  94.9146 265.2211 13.14502403163219
ONEWEB-0653             
1 55815U 23029V   26197.30672914  .00000218  00000+0  55271-3 0  9990
2 55815  87.8968 283.9071 0001960  99.9453 260.1898 13.14502195163226
ONEWEB-0654             
1 55816U 23029W   26197.30197036  .00000238  00000+0  60869-3 0  9999
2 55816  87.8967 283.9040 0001800  91.1600 268.9736 13.14502150163243
ONEWEB-0656             
1 55817U 23029X   26197.59803616  .00000027  00000+0  33856-4 0  9992
2 55817  87.9187 268.5701 0001855  86.8090 273.3256 13.20769823165031
ONEWEB-0657             
1 55818U 23029Y   26197.56573534 -.00000018  00000+0 -76678-4 0  9994
2 55818  87.9184 299.1241 0002171  78.8973 281.2404 13.19727021162785
ONEWEB-0658             
1 55819U 23029Z   26197.56098035  .00000101  00000+0  21910-3 0  9992
2 55819  87.9194 299.1032 0002375 106.7591 253.3803 13.19726493162794
ONEWEB-0660             
1 55820U 23029AA  26197.50812021 -.00000086  00000+0 -26568-3 0  9995
2 55820  87.8975 283.8587 0001974 109.0607 251.0737 13.14502112163253
ONEWEB-0661             
1 55821U 23029AB  26197.46689949  .00000215  00000+0  54579-3 0  9997
2 55821  87.8960 283.9068 0001806 107.1455 252.9873 13.14502920163233
ONEWEB-0662             
1 55822U 23029AC  26197.27343198 -.00000165  00000+0 -47907-3 0  9993
2 55822  87.8959 283.9507 0001946 108.4836 251.6506 13.14502481163255
ONEWEB-0663             
1 55823U 23029AD  26197.25078543 -.00000020  00000+0 -82151-4 0  9992
2 55823  87.9189 268.7102 0002220 110.1765 249.9607 13.20871472164980
ONEWEB-0664             
1 55824U 23029AE  26197.28155184  .00000062  00000+0  12141-3 0  9998
2 55824  87.9174 268.6819 0001606 103.6720 256.4593 13.20772512164986
ONEWEB-0665             
1 55825U 23029AF  26197.53984745  .00000164  00000+0  40789-3 0  9992
2 55825  87.8960 283.8731 0002036 109.5519 250.5831 13.14502468163264
ONEWEB-0666             
1 55826U 23029AG  26197.27479796 -.00000086  00000+0 -24338-3 0  9996
2 55826  87.9175 268.6733 0002489  83.8987 276.2430 13.20772655164997
