OBJECT_NAME,OBJECT_ID,EPOCH,MEAN_MOTION,ECCENTRICITY,INCLINATION,RA_OF_ASC_NODE,ARG_OF_PERICENTER,MEAN_ANOMALY,EPHEMERIS_TYPE,CLASSIFICATION_TYPE,NORAD_CAT_ID,ELEMENT_SET_NO,REV_AT_EPOCH,BSTAR,MEAN_MOTION_DOT,MEAN_MOTION_DDOT
ONEWEB-0534,2023-029B,2026-07-16T14:57:30.973824,13.20771172,.0002049,87.9174,268.6019,101.1828,258.9536,0,U,55797,999,16503,-.38585749E-3,-.144E-5,0
ONEWEB-0556,2023-029C,2026-07-16T11:29:02.476032,13.20809891,.00009994,87.9178,268.6304,118.1501,241.9733,0,U,55798,999,16501,-.20145158E-1,-.8175E-4,0
ONEWEB-0562,2023-029D,2026-07-16T14:47:50.322624,13.20771957,.00013191,87.9172,268.5831,85.3671,274.7613,0,U,55799,999,16503,.11067446E-3,.58E-6,0
ONEWEB-0563,2023-029E,2026-07-16T05:35:06.722016,13.20769753,.00021376,87.9174,268.6898,104.6251,255.5119,0,U,55800,999,16497,.1552118E-3,.76E-6,0
ONEWEB-0564,2023-029F,2026-07-16T14:30:52.629984,13.20772411,.00017483,87.9175,268.5895,91.2069,268.9264,0,U,55801,999,16503,.14923757E-3,.74E-6,0
ONEWEB-0638,2023-029G,2026-07-16T11:16:53.581440,13.14503967,.00014644,87.8959,283.9149,104.1668,255.9625,0,U,55802,999,16324,.49388161E-3,.196E-5,0
ONEWEB-0639,2023-029H,2026-07-16T12:35:28.240224,13.19726904,.00026894,87.9187,299.1339,118.8202,241.3201,0,U,55803,999,16277,.31309787E-3,.138E-5,0
ONEWEB-0640,2023-029J,2026-07-16T11:30:35.815680,13.14502679,.00016152,87.8962,283.9041,117.7835,242.3458,0,U,55804,999,16326,.1335031E-3,.62E-6,0
ONEWEB-0641,2023-029K,2026-07-16T07:01:08.652000,13.19717686,.00020675,87.9194,299.1714,104.0666,256.0697,0,U,55805,999,16275,-.19010311E-2,-.748E-5,0
ONEWEB-0642,2023-029L,2026-07-16T06:54:19.241280,13.19726758,.00027019,87.9188,299.1822,112.9207,247.2211,0,U,55806,999,16274,.95743779E-4,.51E-6,0
ONEWEB-0643,2023-029M,2026-07-16T12:36:49.660992,13.14502818,.00026907,87.8955,283.8820,106.0521,254.0905,0,U,55807,999,16324,.35665907E-3,.145E-5,0
ONEWEB-0644,2023-029N,2026-07-16T12:15:01.729152,13.19726005,.00023056,87.9185,299.1389,105.7467,254.3920,0,U,55808,999,16277,.37860987E-4,.28E-6,0
ONEWEB-0645,2023-029P,2026-07-16T12:46:52.132512,13.19726453,.0002087,87.9184,299.1309,114.1640,245.9712,0,U,55809,999,16277,.44387008E-3,.191E-5,0
ONEWEB-0646,2023-029Q,2026-07-16T07:44:20.736672,13.19727215,.00022896,87.9186,299.1736,104.9453,255.1933,0,U,55810,999,16273,.15139821E-3,.74E-6,0
ONEWEB-0648,2023-029R,2026-07-16T06:22:18.863040,13.14503534,.00024256,87.8969,283.9103,121.5859,238.5507,0,U,55811,999,16321,-.29747023E-3,-.97E-6,0
ONEWEB-0649,2023-029S,2026-07-16T13:48:15.397344,13.19727179,.00020888,87.9185,299.1213,108.2496,251.8864,0,U,55812,999,16280,.24851063E-3,.112E-5,0
ONEWEB-0650,2023-029T,2026-07-16T06:24:44.236224,13.19726257,.00025165,87.9183,299.1849,110.9683,249.1719,0,U,55813,999,16273,-.85897976E-4,-.21E-6,0
ONEWEB-0652,2023-029U,2026-07-16T11:23:44.849760,13.14502403,.00019956,87.8969,283.8752,94.9146,265.2211,0,U,55814,999,16321,.36973842E-3,.15E-5,0
ONEWEB-0653,2023-029V,2026-07-16T07:21:41.397696,13.14502195,.000196,87.8968,283.9071,99.9453,260.1898,0,U,55815,999,16322,.5527077E-3,.218E-5,0
ONEWEB-0654,2023-029W,2026-07-16T07:14:50.239104,13.14502150,.00018004,87.8967,283.9040,91.1600,268.9736,0,U,55816,999,16324,.60868703E-3,.238E-5,0
ONEWEB-0656,2023-029X,2026-07-16T14:21:10.324224,13.20769823,.00018556,87.9187,268.5701,86.8090,273.3256,0,U,55817,999,16503,.33855967E-4,.27E-6,0
ONEWEB-0657,2023-029Y,2026-07-16T13:34:39.533376,13.19727021,.00021717,87.9184,299.1241,78.8973,281.2404,0,U,55818,999,16278,-.76677978E-4,-.18E-6,0
ONEWEB-0658,2023-029Z,2026-07-16T13:27:48.702240,13.19726493,.00023754,87.9194,299.1032,106.7591,253.3803,0,U,55819,999,16279,.21909917E-3,.101E-5,0
ONEWEB-0660,2023-029AA,2026-07-16T12:11:41.586144,13.14502112,.0001974,87.8975,283.8587,109.0607,251.0737,0,U,55820,999,16325,-.26567612E-3,-.86E-6,0
ONEWEB-0661,2023-029AB,2026-07-16T11:12:20.115936,13.14502920,.00018069,87.8960,283.9068,107.1455,252.9873,0,U,55821,999,16323,.54579494E-3,.215E-5,0
ONEWEB-0662,2023-029AC,2026-07-16T06:33:44.523072,13.14502481,.00019468,87.8959,283.9507,108.4836,251.6506,0,U,55822,999,16325,-.47907312E-3,-.165E-5,0
ONEWEB-0663,2023-029AD,2026-07-16T06:01:07.861152,13.20871472,.00022207,87.9189,268.7102,110.1765,249.9607,0,U,55823,999,16498,-.82150994E-4,-.2E-6,0
ONEWEB-0664,2023-029AE,2026-07-16T06:45:26.078976,13.20772512,.00016066,87.9174,268.6819,103.6720,256.4593,0,U,55824,999,16498,.12141458E-3,.62E-6,0
ONEWEB-0665,2023-029AF,2026-07-16T12:57:22.819680,13.14502468,.00020363,87.8960,283.8731,109.5519,250.5831,0,U,55825,999,16326,.40788902E-3,.164E-5,0
ONEWEB-0666,2023-029AG,2026-07-16T06:35:42.543744,13.20772655,.00024897,87.9175,268.6733,83.8987,276.2430,0,U,55826,999,16499,-.2433773E-3,-.86E-6,0
